[Satellite]
VERSION=1.1
NAME=Changshagaoxin
NICKNAME=Changshagaoxin
TLE1=1 43669U 18083H   19311.61338774  .00000619  00000-0  34749-4 0  9999
TLE2=2 43669  97.4975 333.9462 0012189  53.6855 306.5502 15.16961386 56743
STATUS=0
